0 FENGYUN 1C DEB
1 30134U 99025SP  13286.81965514  .00000547  00000-0  34936-3 0   585
2 30134 099.0582 288.6113 0022102 100.4233 023.2744 14.07717006346531
0 FENGYUN 1C DEB
1 30134U 99025SP  13288.93938003  .00000505  00000-0  32439-3 0   594
2 30134 099.0581 290.7369 0022114 094.7855 325.2976 14.07721945346837
0 FENGYUN 1C DEB
1 30134U 99025SP  13291.51170314  .00000558  00000-0  35545-3 0   606
2 30134 099.0583 293.3164 0022060 087.9326 040.9907 14.07724226347198
0 FENGYUN 1C DEB
1 30134U 99025SP  13293.57165182  .00000827  00000-0  51410-3 0   610
2 30134 099.0586 295.3822 0021997 082.3563 040.2482 14.07725463347481
0 FENGYUN 1C DEB
1 30134U 99025SP  13295.84561581  .00001071  00000-0  65843-3 0   623
2 30134 099.0587 297.6626 0021918 076.3483 043.9440 14.07727987347809
